{"type": "FeatureCollection", "features": [ {"type": "Feature", "properties": {"norad_id": 32384, "name": "GPS BIIRM-5 (PRN 29)", "group": "gps-ops", "lat": 3.997606994983707, "lon": 98.48702166839045, "alt_km": 20097.010804208763, "timestamp": "2025-12-21T18:54:58.755466+00:00", "meta": {"OBJECT_NAME": "GPS BIIRM-5 (PRN 29)", "OBJECT_ID": "2007-062A", "EPOCH": "2025-12-19T04:08:10.010976", "MEAN_MOTION": 2.00577702, "ECCENTRICITY": 0.00322663, "INCLINATION": 55.1765, "RA_OF_ASC_NODE": 281.388, "ARG_OF_PERICENTER": 162.2119, "MEAN_ANOMALY": 283.9132, "EPHEMERIS_TYPE": 0, "CLASSIFICATION_TYPE": "U", "NORAD_CAT_ID": 32384, "ELEMENT_SET_NO": 999, "REV_AT_EPOCH": 13190, "BSTAR": 0, "MEAN_MOTION_DOT": -3.8e-07, "MEAN_MOTION_DDOT": 0}, "tle": {"line1": "1 32384U 07062A   25353.17233809 -.00000038  00000+0  00000+0 0  9996", "line2": "2 32384  55.1765 281.3880 0032266 162.2119 283.9132  2.00577702131904"}}, "geometry": {"type": "Point", "coordinates": [98.48702166839045, 3.997606994983707]}}, {"type": "Feature", "properties": {"norad_id": 32711, "name": "GPS BIIRM-6 (PRN 07)", "group": "gps-ops", "lat": 53.714561960124655, "lon": -99.71312124327433, "alt_km": 20625.313586048705, "timestamp": "2025-12-21T18:54:58.755476+00:00", "meta": {"OBJECT_NAME": "GPS BIIRM-6 (PRN 07)", "OBJECT_ID": "2008-012A", "EPOCH": "2025-12-19T15:41:26.858112", "MEAN_MOTION": 2.00565937, "ECCENTRICITY": 0.0202735, "INCLINATION": 54.4779, "RA_OF_ASC_NODE": 157.0969, "ARG_OF_PERICENTER": 245.0276, "MEAN_ANOMALY": 112.8468, "EPHEMERIS_TYPE": 0, "CLASSIFICATION_TYPE": "U", "NORAD_CAT_ID": 32711, "ELEMENT_SET_NO": 999, "REV_AT_EPOCH": 13015, "BSTAR": 0, "MEAN_MOTION_DOT": 6.7e-07, "MEAN_MOTION_DDOT": 0}, "tle": {"line1": "1 32711U 08012A   25353.65378308  .00000067  00000+0  00000+0 0  9994", "line2": "2 32711  54.4779 157.0969 0202735 245.0276 112.8468  2.00565937130151"}}, "geometry": {"type": "Point", "coordinates": [-99.71312124327433, 53.714561960124655]}}, {"type": "Feature", "properties": {"norad_id": 35752, "name": "GPS BIIRM-8 (PRN 05)", "group": "gps-ops", "lat": 46.376434008354835, "lon": 169.59572757509335, "alt_km": 20067.264761904044, "timestamp": "2025-12-21T18:54:58.755487+00:00", "meta": {"OBJECT_NAME": "GPS BIIRM-8 (PRN 05)", "OBJECT_ID": "2009-043A", "EPOCH": "2025-12-20T02:09:52.509312", "MEAN_MOTION": 2.00565329, "ECCENTRICITY": 0.00516467, "INCLINATION": 56.096, "RA_OF_ASC_NODE": 34.4932, "ARG_OF_PERICENTER": 81.7821, "MEAN_ANOMALY": 251.1308, "EPHEMERIS_TYPE": 0, "CLASSIFICATION_TYPE": "U", "NORAD_CAT_ID": 35752, "ELEMENT_SET_NO": 999, "REV_AT_EPOCH": 11976, "BSTAR": 0, "MEAN_MOTION_DOT": -6.1e-07, "MEAN_MOTION_DDOT": 0}, "tle": {"line1": "1 35752U 09043A   25354.09019108 -.00000061  00000+0  00000+0 0  9991", "line2": "2 35752  56.0960  34.4932 0051646  81.7821 251.1308  2.00565329119760"}}, "geometry": {"type": "Point", "coordinates": [169.59572757509335, 46.376434008354835]}}, {"type": "Feature", "properties": {"norad_id": 36585, "name": "GPS BIIF-1  (PRN 25)", "group": "gps-ops", "lat": -43.02268956987183, "lon": 77.87040642579959, "alt_km": 20520.892142248, "timestamp": "2025-12-21T18:54:58.755498+00:00", "meta": {"OBJECT_NAME": "GPS BIIF-1  (PRN 25)", "OBJECT_ID": "2010-022A", "EPOCH": "2025-12-21T05:24:38.676096", "MEAN_MOTION": 2.00553675, "ECCENTRICITY": 0.0126455, "INCLINATION": 54.2988, "RA_OF_ASC_NODE": 215.7316, "ARG_OF_PERICENTER": 65.181, "MEAN_ANOMALY": 125.5392, "EPHEMERIS_TYPE": 0, "CLASSIFICATION_TYPE": "U", "NORAD_CAT_ID": 36585, "ELEMENT_SET_NO": 999, "REV_AT_EPOCH": 11402, "BSTAR": 0, "MEAN_MOTION_DOT": 7.7e-07, "MEAN_MOTION_DDOT": 0}, "tle": {"line1": "1 36585U 10022A   25355.22544764  .00000077  00000+0  00000+0 0  9998", "line2": "2 36585  54.2988 215.7316 0126455  65.1810 125.5392  2.00553675114022"}}, "geometry": {"type": "Point", "coordinates": [77.87040642579959, -43.02268956987183]}}, {"type": "Feature", "properties": {"norad_id": 38833, "name": "GPS BIIF-3  (PRN 24)", "group": "gps-ops", "lat": -21.500778337517435, "lon": 133.93311873273194, "alt_km": 20186.880520017392, "timestamp": "2025-12-21T18:54:58.755509+00:00", "meta": {"OBJECT_NAME": "GPS BIIF-3  (PRN 24)", "OBJECT_ID": "2012-053A", "EPOCH": "2025-12-21T07:50:41.138592", "MEAN_MOTION": 2.00565076, "ECCENTRICITY": 0.0176016, "INCLINATION": 53.5593, "RA_OF_ASC_NODE": 150.887, "ARG_OF_PERICENTER": 64.1244, "MEAN_ANOMALY": 297.6553, "EPHEMERIS_TYPE": 0, "CLASSIFICATION_TYPE": "U", "NORAD_CAT_ID": 38833, "ELEMENT_SET_NO": 999, "REV_AT_EPOCH": 9587, "BSTAR": 0, "MEAN_MOTION_DOT": 6e-07, "MEAN_MOTION_DDOT": 0}, "tle": {"line1": "1 38833U 12053A   25355.32686503  .00000060  00000+0  00000+0 0  9993", "line2": "2 38833  53.5593 150.8870 0176016  64.1244 297.6553  2.00565076 95875"}}, "geometry": {"type": "Point", "coordinates": [133.93311873273194, -21.500778337517435]}}, {"type": "Feature", "properties": {"norad_id": 39166, "name": "GPS BIIF-4  (PRN 27)", "group": "gps-ops", "lat": 51.29249109346938, "lon": -21.605967117111046, "alt_km": 19840.664300864464, "timestamp": "2025-12-21T18:54:58.755520+00:00", "meta": {"OBJECT_NAME": "GPS BIIF-4  (PRN 27)", "OBJECT_ID": "2013-023A", "EPOCH": "2025-12-21T04:35:02.241888", "MEAN_MOTION": 2.00564674, "ECCENTRICITY": 0.0138431, "INCLINATION": 54.6447, "RA_OF_ASC_NODE": 276.2247, "ARG_OF_PERICENTER": 48.7169, "MEAN_ANOMALY": 312.5052, "EPHEMERIS_TYPE": 0, "CLASSIFICATION_TYPE": "U", "NORAD_CAT_ID": 39166, "ELEMENT_SET_NO": 999, "REV_AT_EPOCH": 9231, "BSTAR": 0, "MEAN_MOTION_DOT": -1.7e-07, "MEAN_MOTION_DDOT": 0}, "tle": {"line1": "1 39166U 13023A   25355.19099817 -.00000017  00000+0  00000+0 0  9995", "line2": "2 39166  54.6447 276.2247 0138431  48.7169 312.5052  2.00564674 92319"}}, "geometry": {"type": "Point", "coordinates": [-21.605967117111046, 51.29249109346938]}}, {"type": "Feature", "properties": {"norad_id": 39533, "name": "GPS BIIF-5  (PRN 30)", "group": "gps-ops", "lat": 50.90056322903365, "lon": -138.37085323508072, "alt_km": 20363.288624129018, "timestamp": "2025-12-21T18:54:58.755531+00:00", "meta": {"OBJECT_NAME": "GPS BIIF-5  (PRN 30)", "OBJECT_ID": "2014-008A", "EPOCH": "2025-12-20T04:30:10.868256", "MEAN_MOTION": 2.00559606, "ECCENTRICITY": 0.00799985, "INCLINATION": 53.6333, "RA_OF_ASC_NODE": 156.6204, "ARG_OF_PERICENTER": 226.3975, "MEAN_ANOMALY": 132.9264, "EPHEMERIS_TYPE": 0, "CLASSIFICATION_TYPE": "U", "NORAD_CAT_ID": 39533, "ELEMENT_SET_NO": 999, "REV_AT_EPOCH": 8609, "BSTAR": 0, "MEAN_MOTION_DOT": 6.4e-07, "MEAN_MOTION_DDOT": 0}, "tle": {"line1": "1 39533U 14008A   25354.18762579  .00000064  00000+0  00000+0 0  9998", "line2": "2 39533  53.6333 156.6204 0079998 226.3975 132.9264  2.00559606 86091"}}, "geometry": {"type": "Point", "coordinates": [-138.37085323508072, 50.90056322903365]}}, {"type": "Feature", "properties": {"norad_id": 39741, "name": "GPS BIIF-6  (PRN 06)", "group": "gps-ops", "lat": -39.83302334474224, "lon": -168.1743189115854, "alt_km": 20184.735412740683, "timestamp": "2025-12-21T18:54:58.755542+00:00", "meta": {"OBJECT_NAME": "GPS BIIF-6  (PRN 06)", "OBJECT_ID": "2014-026A", "EPOCH": "2025-12-18T23:24:45.525888", "MEAN_MOTION": 2.00561009, "ECCENTRICITY": 0.00393411, "INCLINATION": 56.5812, "RA_OF_ASC_NODE": 338.5339, "ARG_OF_PERICENTER": 319.0443, "MEAN_ANOMALY": 40.6665, "EPHEMERIS_TYPE": 0, "CLASSIFICATION_TYPE": "U", "NORAD_CAT_ID": 39741, "ELEMENT_SET_NO": 999, "REV_AT_EPOCH": 8492, "BSTAR": 0, "MEAN_MOTION_DOT": -8.1e-07, "MEAN_MOTION_DDOT": 0}, "tle": {"line1": "1 39741U 14026A   25352.97552692 -.00000081  00000+0  00000+0 0  9997", "line2": "2 39741  56.5812 338.5339 0039341 319.0443  40.6665  2.00561009 84924"}}, "geometry": {"type": "Point", "coordinates": [-168.1743189115854, -39.83302334474224]}}, {"type": "Feature", "properties": {"norad_id": 40105, "name": "GPS BIIF-7  (PRN 09)", "group": "gps-ops", "lat": 9.25847507882564, "lon": -90.95054772277719, "alt_km": 20123.23319778444, "timestamp": "2025-12-21T18:54:58.755553+00:00", "meta": {"OBJECT_NAME": "GPS BIIF-7  (PRN 09)", "OBJECT_ID": "2014-045A", "EPOCH": "2025-12-21T01:21:54.490752", "MEAN_MOTION": 2.00573117, "ECCENTRICITY": 0.00324545, "INCLINATION": 55.2339, "RA_OF_ASC_NODE": 95.5671, "ARG_OF_PERICENTER": 120.1188, "MEAN_ANOMALY": 240.1998, "EPHEMERIS_TYPE": 0, "CLASSIFICATION_TYPE": "U", "NORAD_CAT_ID": 40105, "ELEMENT_SET_NO": 999, "REV_AT_EPOCH": 8250, "BSTAR": 0, "MEAN_MOTION_DOT": -1.2e-07, "MEAN_MOTION_DDOT": 0}, "tle": {"line1": "1 40105U 14045A   25355.05688068 -.00000012  00000+0  00000+0 0  9997", "line2": "2 40105  55.2339  95.5671 0032454 120.1188 240.1998  2.00573117 82505"}}, "geometry": {"type": "Point", "coordinates": [-90.95054772277719, 9.25847507882564]}}, {"type": "Feature", "properties": {"norad_id": 40294, "name": "GPS BIIF-8  (PRN 03)", "group": "gps-ops", "lat": -54.519714936274845, "lon": -75.84999254175341, "alt_km": 20348.397884735932, "timestamp": "2025-12-21T18:54:58.755580+00:00", "meta": {"OBJECT_NAME": "GPS BIIF-8  (PRN 03)", "OBJECT_ID": "2014-068A", "EPOCH": "2025-12-21T10:24:33.832224", "MEAN_MOTION": 2.00565456, "ECCENTRICITY": 0.00608151, "INCLINATION": 56.8641, "RA_OF_ASC_NODE": 37.8098, "ARG_OF_PERICENTER": 69.0115, "MEAN_ANOMALY": 291.7086, "EPHEMERIS_TYPE": 0, "CLASSIFICATION_TYPE": "U", "NORAD_CAT_ID": 40294, "ELEMENT_SET_NO": 999, "REV_AT_EPOCH": 8164, "BSTAR": 0, "MEAN_MOTION_DOT": -5.2e-07, "MEAN_MOTION_DDOT": 0}, "tle": {"line1": "1 40294U 14068A   25355.43372491 -.00000052  00000+0  00000+0 0  9997", "line2": "2 40294  56.8641  37.8098 0060815  69.0115 291.7086  2.00565456 81643"}}, "geometry": {"type": "Point", "coordinates": [-75.84999254175341, -54.519714936274845]}}]}